#dP2018 10 23  0  0  0.00000000      96 __u+U IGS08 FIT  IAC
## 2024 172800.00000000   900.00000000 58414 0.0000000000000
+   91   C01C02C03C04C05C06C07C08C09C10C11C12C13C14E01E02E03
+        E04E05E07E08E09E11E12E14E18E19E21E24E25E26E27E30E31
+        G01G02G03G05G06G07G08G09G10G11G12G13G14G15G16G17G18
+        G19G20G21G22G23G24G25G26G27G28G29G30G31G32J01J02J03
+        R01R02R03R04R05R07R08R09R10R11R13R14R15R16R17R18R19
+        R20R21R22R23R24R26  0  0  0  0  0  0  0  0  0  0  0
++        12 12 12 12 12  8  8  8  8  8  7  7  8  7  7  7  7
++         7  7  7  7  7  7  7  7  7  7  7  7  7  7  7  7  6
++         3  3  3  3  3  3  3  3  3  3  3  3  3  3  3  3  3
++         3  3  3  3  3  3  3  3  3  3  3  3  3  3  8 10 11
++         5  5  5  5  5  5  5  5  5  5  5  5  5  5  5  5  5
++         5  5  5  5  5  8  0  0  0  0  0  0  0  0  0  0  0
%c M  cc GPS ccc cccc cccc cccc cccc ccccc ccccc ccccc ccccc
%c cc cc ccc ccc cccc cccc cccc cccc ccccc ccccc ccccc ccccc
%f  1.2500000  1.025000000  0.00000000000  0.000000000000000
%f  0.0000000  0.000000000  0.00000000000  0.000000000000000
%i    0    0    0    0      0      0      0      0         0
%i    0    0    0    0      0      0      0      0         0
/* INFORMATION & ANALYSIS CENTER (IAC)            FINAL DATA
/* S/V CLOCKS ARE ALIGNED TO GPS & GLONASS TIME RESPECTIVELY
/* USING THE BROADCAST EPHEMERIS                            
/* PCV:IGS14_2022 OL/AL:FES2004  NONE     YN ORB:CoN CLK:CoN
*  2018 10 23 18  0  0.00000000
PC01 -32260.909934  27140.071309   1017.524275   -204.751481
PC02   4332.672826  41946.040648   -821.876514    -46.893904
PC03 -14824.594991  39436.717753    380.251076   -220.773777
PC04 -39627.136414  14437.539494    482.442750     76.162636
PC05  21913.234502  35995.093296  -1095.687533    202.812697
PC06  -7985.934192  30883.948756 -27115.428030    407.628876
PC07 -18592.989732  22394.341118  30479.400749   -107.853742
PC08 -22874.596881  35425.082047  -3443.567434      7.629383
PC09   4587.212945  39384.893910 -13699.953896    223.142407
PC10  -2263.711792  25664.230251  33522.541690   -178.033505
PC11  13934.579256 -15157.220232 -18738.777651     -8.713540
PC12  14580.798873   6634.392105 -22803.898863    167.820853
PC13 -10431.758641  36565.501319 -18501.671619   -340.403706
PC14  18842.032172  -4229.659405  20178.872926    667.163235
PE01  28226.043825  -6065.379458  -6544.314275   -462.374128
PE02 -28203.543079   6105.631467   6606.363837     32.312902
PE03 -17820.764649   3206.839616 -23416.241167    -91.558219
PE04   3947.999992 -20759.678964  20728.087220   -143.734325
PE05 -21340.053997 -16343.325741 -12396.703857    171.936459
PE07  12362.991675  26259.969911  -5833.364462    -61.941312
PE08  -3610.761439  20764.636223 -20789.499630   6477.212361
PE09 -12602.965969 -26121.200416   5880.616353   6639.201076
PE11  -1639.371223 -23692.609645  17665.557713   5699.815722
PE12  12964.017961 -26614.783175    -61.316595   5337.195981
PE14   -250.140189 -28543.976441  -4271.817020   6500.338801
PE18  11558.854943  24056.842658 -10598.331427   5810.757958
PE19  18622.672744  -1128.668302  22979.511475    -11.199709
PE21  25918.331629   6646.720786  12674.803318   -500.926297
PE24  -8930.124562 -15182.822983 -23791.948681   6426.572025
PE25 -25895.921432  -6650.814622 -12679.337634   2004.703638
PE26  14919.484597   7166.677615 -24539.769579   5331.395507
PE27   8246.370843  15250.075016  24003.493083    605.162932
PE30 -13683.675823  15020.815568  21525.495464   5409.167537
PE31  14255.995322 -14892.794098 -21230.138618   1002.320244
PG01 -10419.047802  20674.657623 -12908.203405   -104.341267
PG02  21072.887318 -14357.837960  -6429.282402    -38.325297
PG03   -970.234374  15560.507300 -21546.921702    152.359772
PG05  20328.582947  -5722.832713  16108.483057     -0.728424
PG06  19437.751511   -723.328336 -18064.941729    345.164630
PG07   4457.829348  15704.089930  21105.192515    101.531836
PG08  -7596.572268  19203.875199  16656.322102   -119.629674
PG09   7051.944749  25500.903579   2260.478935    498.304366
PG10 -23861.168776 -11137.024685   4189.586151    171.906120
PG11  -8292.414923  25187.396717  -3441.258021   -707.135437
PG12   6290.261207 -13378.656699 -22254.502532    297.602253
PG13  12744.121445 -12071.138184  19813.776775    -86.355567
PG14 -15272.098345  -4955.821872 -20886.130979    -96.478224
PG15   3993.469650 -22218.454869  13435.000898   -342.160086
PG16 -21777.123836   1521.805857  15261.447114      2.717513
PG17  13458.941558  15276.526906 -16723.799557    -40.530533
PG18 -16610.050089  20249.459588  -4359.295648     71.445344
PG19  15029.228331   4339.304866 -21739.826023   -390.756396
PG20 -18352.677456 -14015.508084  13099.176256    517.704651
PG21  -8554.147654 -13718.530543  21880.344588   -316.476046
PG22  -9563.666228  13455.115982 -20570.733866   -554.742025
PG23    913.176766  25515.094132  -6182.539138   -208.006503
PG24  13306.303260 -21260.239000  -8376.289000    -57.170397
PG25  -7921.432871 -16684.111317 -19357.062728   -666.094371
PG26 -25652.143808  -3441.525065   6302.736961     18.056167
PG27 -12905.700583   8761.185414  21371.876955     -8.717129
PG28  21413.752767  14394.706379   6780.210113    751.185101
PG29  -4370.477521 -26163.399076   1286.181460    351.062774
PG30  14430.759188   7909.879605  20895.780810      5.937524
PG31 -21038.616614   2694.972019 -16222.069508     84.718031
PG32 -15228.712600 -13002.903181 -17456.867951   -383.000599
PJ01 -23370.357237  19211.661329 -24777.791614   -303.081322
PJ02 -30892.125697  27014.164751  14771.522001      0.337954
PJ03 -25865.632623  25495.332273  26428.620140      0.413795
PR01 -18083.961774  -6470.871062 -16781.667378     33.882422
PR02  -5117.356422  10193.064825 -22779.534149    335.944345
PR03   9657.529890  19168.841751 -13715.118136    146.776200
PR04  18929.503292  16665.103105   3777.370150    281.026494
PR05  17022.921290   4986.375444  18325.746043     13.807355
PR07  -9982.795749 -19310.786973  13404.398700    -49.991445
PR08 -18722.271610 -17064.286830  -2976.144786     20.803191
PR09  16901.276326 -11758.186542 -15087.172273     34.941723
PR10    492.288626 -11054.698633 -23000.864941     34.082461
PR11 -17777.798181  -4306.125271 -17732.949965    -44.813485
PR13 -17261.658878  11731.563409  14648.583536    -16.003581
PR14   -318.797695  11291.852490  22887.872594     32.268790
PR15  13806.397535   6343.644895  20473.462079    -18.174036
PR16  24717.390966  -5050.307679   3342.606056    104.625716
PR17  -2984.350452  24047.477137  -8032.044067    174.579638
PR18   5985.368049  13497.308227 -20773.825518     26.472007
PR19  11768.668302  -4265.611493 -22224.802039    -60.923272
PR20  10971.413960 -20939.352605  -9628.465024   -356.592310
PR21   2734.517640 -23873.191795   8508.970880    -10.505221
PR22  -6911.648947 -11496.113327  21724.804541    -64.902080
PR23 -12232.627625   9103.375044  20442.197925    186.179462
PR24 -10216.272612  21799.738756   8396.987862   -172.919462
PR26  10963.608884 -20190.301361 -11038.737629     25.849559
EOF
